#cP2016  6  6  0  0  0.00000000     288   u+U UNDEF FIT  GFZ                    
## 1900  86400.00000000   300.00000000 57545 0.0000000000000                    
+   78   C01C02C04C05C06C07C08C09C10C11C12C14C15E08E09E11E12                    
+        E14E18E19E22E24E26E30G01G02G03G05G06G07G08G09G10G11                    
+        G12G13G14G15G16G17G18G19G20G21G22G23G24G25G26G27G28                    
+        G29G30G31G32J01R01R02R03R04R05R06R07R08R09R10R12R13                    
+        R14R16R17R18R19R20R21R22R23R24 00 00 00 00 00 00 00                    
++        10 10 10 10 10 10 10 10  9  7  6  7 10  6  8 10  8                    
++        10 10  7  9  8  8  6  5  6  5  5  5  5  5  5  6  6                    
++         7  7  7  8  5  6  6  5  6  5  7  5  7  6  5  6  6                    
++         5  6  6  5 10  8  8  6  5 10  6  8  6  7  6 10  8                    
++        10 10  7  9  7 10  8  8  7  9  0  0  0  0  0  0  0                    
%c M  cc GPS ccc cccc cccc cccc cccc ccccc ccccc ccccc ccccc                    
%c cc cc ccc ccc cccc cccc cccc cccc ccccc ccccc ccccc ccccc                    
%f  1.2500000  1.025000000  0.00000000000  0.000000000000000                    
%f  0.0000000  0.000000000  0.00000000000  0.000000000000000                    
%i    0    0    0    0      0      0      0      0         0                    
%i    0    0    0    0      0      0      0      0         0                    
/* PCV:IGS08_1899 OL/AL:FES2004  NONE     YN CLK:CoN ORB:CoN                    
/*     GeoForschungsZentrum Potsdam                                             
/*                                                                              
/*                                                                              
*  2016  6  6 15 15  0.00000000                                                 
PC01 -32304.202614  27066.224667  -1143.077990   -220.666884                    
PC02   7277.017696  41539.214127    518.723504    149.103409                    
PC04 -39628.008620  14367.874151   -514.921810   -200.850283                    
PC05  21931.980285  35998.259178    840.577321    275.410377                    
PC06  -7679.171575  34095.474520  23940.220497     75.021668                    
PC07 -16719.004541  21038.292756 -32456.562196    199.070495                    
PC08 -24618.749204  33369.475281   7150.615772   -348.416608                    
PC09   1714.996274  40551.788361  12017.504463   -259.094549                    
PC10    651.984820  25307.841990 -33636.226557    114.861750                    
PC11  17037.945797 -21833.767363   3828.466891   -833.282193                    
PC12  19229.145880  -6018.029751  19385.963511    570.754639                    
PC14   9354.041938 -14848.281437 -21631.079990    885.882436                    
PC15 -11698.601592  34534.292854  21002.717808    242.372013                    
PE08   5008.341081  29127.799210   1651.845274   3072.922577                    
PE09 -15597.597471 -19454.781701  15966.503554   3019.554077                    
PE11 -14628.531112  -9058.250519 -24088.879182   1336.361473                    
PE12   2158.508851 -21014.340760 -20720.365080  -2285.585441                    
PE14   9518.082107 -23077.470170  -1422.290508   7039.740213                    
PE18 -19227.096577  23735.480580  -8128.969315   3773.566915                    
PE19   9605.838122 -20312.164827 -19252.596953     -5.831262                    
PE22 -18629.989090  22166.024999   6135.986960   2613.042438                    
PE24 -24542.536478 -14002.868427   8785.498778   2279.358296                    
PE26  24683.022553  -9810.815836  13067.406168   8101.083930                    
PE30   7038.872998  17671.209086 -22692.050557   6733.820718                    
PG01  -6403.564181 -14204.481193 -21615.358174     22.768612                    
PG02 -15398.290762  14801.763365  15977.901135    587.204956                    
PG03 -12613.871330 -22565.651265  -6081.925820    -64.843498                    
PG05  -3745.032444  17549.943957  19453.109566   -114.943172                    
PG06 -25611.210604   6269.507782   3232.993473    200.957330                    
PG07 -21753.313154  -6948.165258  14040.712806    450.117983                    
PG08   4899.091783 -25279.959889  -6376.951664    -37.995464                    
PG09 -11003.384195 -12356.169201  20758.596553    143.474218                    
PG10  19245.237043   3825.153639 -17910.738432    -39.533243                    
PG11  -1359.845284 -17831.050774 -20190.935101   -649.641109                    
PG12   9360.118263  23293.181490  -9137.950279    381.963684                    
PG13 -12459.625539  23510.321759    105.411014    -22.922118                    
PG14  17698.344964 -10546.557637 -16417.304147    -17.907070                    
PG15  -1148.978325  24901.943497  -8769.998185   -314.137835                    
PG16   5085.204224 -16067.754548  20314.030543    -12.602694                    
PG17 -16748.292108   5192.821920 -19561.833865   -203.991561                    
PG18  20555.991726  14739.299509  -7962.488001    523.635554                    
PG19 -17829.116966  14536.653458 -13837.029307   -525.572011                    
PG20  11032.590332  22077.163138   9611.673390    416.810653                    
PG21  23547.371488   4889.154589  12280.537048   -525.031525                    
PG22  -5551.254047 -22057.148098 -13375.680603    326.028849                    
PG23  -4644.890641 -20441.218525  16237.024127   -176.991195                    
PG24   2572.339015  15270.510074 -21635.189846    -18.173314                    
PG25  17619.918945  19905.202009   1981.248145   -185.266726                    
PG26  13098.765371  -7953.239621  21690.804509   -387.677547                    
PG27  12058.153468 -23156.739760   4312.437570    100.582873                    
PG28 -18516.764900  -7316.404145 -16974.222433    528.252815                    
PG29   7696.932712  15678.313705  20028.187125    656.889110                    
PG30 -26092.213795  -1381.565174   5057.513915    131.075952                    
PG31  24854.743061  -7504.535432   6551.801796    265.260900                    
PG32  17051.961681  -7519.084879 -18907.673461    -19.220132                    
PJ01 -25700.011182  23039.117015  29374.062770   -214.787466                    
PR01  11092.168771  -1711.008977 -22896.892061   -142.798456                    
PR02   2314.628509 -19131.129998 -16646.581920    194.373671                    
PR03  -7348.448017 -24403.442997   -431.791428     71.631982                    
PR04 -12773.826106 -15027.886720  16188.932991    171.846754                    
PR05 -10827.437759   2638.315087  22943.806784    -16.964399                    
PR06  -1796.986569  19792.570888  16005.661675     90.413179                    
PR07   7407.777048  24424.018111    288.314179     -9.034490                    
PR08  12662.031732  15528.157095 -15725.070312    -27.081043                    
PR09  -8936.079313   8619.629116 -22260.811597     -8.015156                    
PR10   9634.775222  11817.740698 -20448.963758     21.147198                    
PR12  22580.714614   -463.012406  11662.657434     25.091859                    
PR13   8515.285624  -8670.768714  22402.071188      7.693778                    
PR14 -11269.645751 -11805.215018  19606.626881    329.675348                    
PR16 -23061.384299    -55.901626 -10812.983999     34.966220                    
PR17   2811.035515 -16226.994251 -19482.083454    -26.107997                    
PR18 -10873.383019  -3828.363069 -22750.063808    104.716695                    
PR19 -19093.048049  11478.401098 -12430.144135   -156.570919                    
PR20 -15492.714559  19542.621414   5510.798731   -237.385445                    
PR21  -3083.447433  16365.450124  19314.955407     67.392208                    
PR22  11175.402392   3367.549051  22665.596968    202.957955                    
PR23  19013.495651 -12340.799828  11683.487523   -120.380991                    
PR24  15552.402163 -19661.402171  -4689.357824   -137.265050                    
EOF                                     
